[{"OBJECT_NAME":"STARLINK-1564","OBJECT_ID":"2020-055AH","EPOCH":"2026-03-05T13:38:08.376000","MEAN_MOTION":15.30190621,"ECCENTRICITY":9.033e-5,"INCLINATION":53.1582,"RA_OF_ASC_NODE":133.514,"ARG_OF_PERICENTER":70.8049,"MEAN_ANOMALY":289.3049,"EPHEMERIS_TYPE":0,"CLASSIFICATION_TYPE":"U","NORAD_CAT_ID":46058,"ELEMENT_SET_NO":999,"REV_AT_EPOCH":30843,"BSTAR":0.00056108612,"MEAN_MOTION_DOT":0.0001629,"MEAN_MOTION_DDOT":0},{"OBJECT_NAME":"STARLINK-1570","OBJECT_ID":"2020-055AJ","EPOCH":"2026-03-05T14:20:25.898208","MEAN_MOTION":15.29904616,"ECCENTRICITY":0.00014795,"INCLINATION":53.1587,"RA_OF_ASC_NODE":132.9185,"ARG_OF_PERICENTER":103.1678,"MEAN_ANOMALY":256.9488,"EPHEMERIS_TYPE":0,"CLASSIFICATION_TYPE":"U","NORAD_CAT_ID":46059,"ELEMENT_SET_NO":999,"REV_AT_EPOCH":30840,"BSTAR":0.002013592,"MEAN_MOTION_DOT":0.00059209,"MEAN_MOTION_DDOT":0},{"OBJECT_NAME":"STARLINK-1572","OBJECT_ID":"2020-055AK","EPOCH":"2026-03-05T14:37:29.364960","MEAN_MOTION":15.29354712,"ECCENTRICITY":0.00014843,"INCLINATION":53.1548,"RA_OF_ASC_NODE":133.0185,"ARG_OF_PERICENTER":96.0725,"MEAN_ANOMALY":264.0444,"EPHEMERIS_TYPE":0,"CLASSIFICATION_TYPE":"U","NORAD_CAT_ID":46060,"ELEMENT_SET_NO":999,"REV_AT_EPOCH":30841,"BSTAR":-5.311953e-6,"MEAN_MOTION_DOT":-5.09e-6,"MEAN_MOTION_DDOT":0},{"OBJECT_NAME":"STARLINK-1573","OBJECT_ID":"2020-055AL","EPOCH":"2026-03-05T13:57:42.271200","MEAN_MOTION":15.30191541,"ECCENTRICITY":0.00016363,"INCLINATION":53.1611,"RA_OF_ASC_NODE":132.9437,"ARG_OF_PERICENTER":114.8821,"MEAN_ANOMALY":245.235,"EPHEMERIS_TYPE":0,"CLASSIFICATION_TYPE":"U","NORAD_CAT_ID":46061,"ELEMENT_SET_NO":999,"REV_AT_EPOCH":30844,"BSTAR":0.00012289303,"MEAN_MOTION_DOT":3.281e-5,"MEAN_MOTION_DDOT":0},{"OBJECT_NAME":"STARLINK-1577","OBJECT_ID":"2020-055AN","EPOCH":"2026-03-05T09:53:26.586528","MEAN_MOTION":15.29828817,"ECCENTRICITY":0.00017207,"INCLINATION":53.1554,"RA_OF_ASC_NODE":133.7023,"ARG_OF_PERICENTER":56.6629,"MEAN_ANOMALY":303.4536,"EPHEMERIS_TYPE":0,"CLASSIFICATION_TYPE":"U","NORAD_CAT_ID":46063,"ELEMENT_SET_NO":999,"REV_AT_EPOCH":30841,"BSTAR":0.0038707273,"MEAN_MOTION_DOT":0.00114739,"MEAN_MOTION_DDOT":0},{"OBJECT_NAME":"STARLINK-1583","OBJECT_ID":"2020-055AP","EPOCH":"2026-03-05T12:17:18.429504","MEAN_MOTION":15.29347395,"ECCENTRICITY":0.00013974,"INCLINATION":53.156,"RA_OF_ASC_NODE":133.2593,"ARG_OF_PERICENTER":90.2366,"MEAN_ANOMALY":269.8795,"EPHEMERIS_TYPE":0,"CLASSIFICATION_TYPE":"U","NORAD_CAT_ID":46064,"ELEMENT_SET_NO":999,"REV_AT_EPOCH":30842,"BSTAR":1.8238294e-5,"MEAN_MOTION_DOT":1.7e-6,"MEAN_MOTION_DDOT":0},{"OBJECT_NAME":"STARLINK-1525","OBJECT_ID":"2020-055AR","EPOCH":"2026-03-05T16:00:00.999936","MEAN_MOTION":15.11063428,"ECCENTRICITY":0.0001572,"INCLINATION":53.0523,"RA_OF_ASC_NODE":114.6247,"ARG_OF_PERICENTER":45.2807,"MEAN_ANOMALY":26.9401,"EPHEMERIS_TYPE":0,"CLASSIFICATION_TYPE":"U","NORAD_CAT_ID":46066,"ELEMENT_SET_NO":999,"REV_AT_EPOCH":581,"BSTAR":0.0049244054,"MEAN_MOTION_DOT":0.00084023,"MEAN_MOTION_DDOT":0},{"OBJECT_NAME":"STARLINK-1536","OBJECT_ID":"2020-055AV","EPOCH":"2026-03-05T10:30:04.179168","MEAN_MOTION":15.06401336,"ECCENTRICITY":0.00014404,"INCLINATION":53.055,"RA_OF_ASC_NODE":115.7104,"ARG_OF_PERICENTER":100.6897,"MEAN_ANOMALY":259.4254,"EPHEMERIS_TYPE":0,"CLASSIFICATION_TYPE":"U","NORAD_CAT_ID":46070,"ELEMENT_SET_NO":999,"REV_AT_EPOCH":30867,"BSTAR":0.00012781101,"MEAN_MOTION_DOT":1.623e-5,"MEAN_MOTION_DDOT":0},{"OBJECT_NAME":"STARLINK-1542","OBJECT_ID":"2020-055AY","EPOCH":"2026-03-05T03:57:17.917344","MEAN_MOTION":15.06395115,"ECCENTRICITY":0.00014084,"INCLINATION":53.054,"RA_OF_ASC_NODE":116.9314,"ARG_OF_PERICENTER":97.7587,"MEAN_ANOMALY":262.3562,"EPHEMERIS_TYPE":0,"CLASSIFICATION_TYPE":"U","NORAD_CAT_ID":46073,"ELEMENT_SET_NO":999,"REV_AT_EPOCH":30862,"BSTAR":4.0487905e-5,"MEAN_MOTION_DOT":3.22e-6,"MEAN_MOTION_DDOT":0},{"OBJECT_NAME":"STARLINK-1549","OBJECT_ID":"2020-055AZ","EPOCH":"2026-03-05T13:09:19.050624","MEAN_MOTION":15.0638087,"ECCENTRICITY":0.00014018,"INCLINATION":53.0541,"RA_OF_ASC_NODE":115.2103,"ARG_OF_PERICENTER":92.8653,"MEAN_ANOMALY":267.2496,"EPHEMERIS_TYPE":0,"CLASSIFICATION_TYPE":"U","NORAD_CAT_ID":46074,"ELEMENT_SET_NO":999,"REV_AT_EPOCH":30867,"BSTAR":-0.00021032103,"MEAN_MOTION_DOT":-3.411e-5,"MEAN_MOTION_DDOT":0},{"OBJECT_NAME":"STARLINK-1551","OBJECT_ID":"2020-055BA","EPOCH":"2026-03-05T13:46:27.835392","MEAN_MOTION":15.06396558,"ECCENTRICITY":0.00011247,"INCLINATION":53.0551,"RA_OF_ASC_NODE":115.0979,"ARG_OF_PERICENTER":97.703,"MEAN_ANOMALY":262.4087,"EPHEMERIS_TYPE":0,"CLASSIFICATION_TYPE":"U","NORAD_CAT_ID":46075,"ELEMENT_SET_NO":999,"REV_AT_EPOCH":30868,"BSTAR":-1.4503405e-5,"MEAN_MOTION_DOT":-4.97e-6,"MEAN_MOTION_DDOT":0},{"OBJECT_NAME":"STARLINK-1552","OBJECT_ID":"2020-055BB","EPOCH":"2026-03-05T12:48:02.841408","MEAN_MOTION":15.06410429,"ECCENTRICITY":0.00012451,"INCLINATION":53.0531,"RA_OF_ASC_NODE":115.2758,"ARG_OF_PERICENTER":98.7937,"MEAN_ANOMALY":261.3193,"EPHEMERIS_TYPE":0,"CLASSIFICATION_TYPE":"U","NORAD_CAT_ID":46076,"ELEMENT_SET_NO":999,"REV_AT_EPOCH":30866,"BSTAR":0.00012336098,"MEAN_MOTION_DOT":1.557e-5,"MEAN_MOTION_DDOT":0},{"OBJECT_NAME":"STARLINK-1559","OBJECT_ID":"2020-055BC","EPOCH":"2026-03-05T12:12:10.393632","MEAN_MOTION":15.2903175,"ECCENTRICITY":0.00043395,"INCLINATION":53.0262,"RA_OF_ASC_NODE":93.3902,"ARG_OF_PERICENTER":25.5561,"MEAN_ANOMALY":334.5651,"EPHEMERIS_TYPE":0,"CLASSIFICATION_TYPE":"U","NORAD_CAT_ID":46077,"ELEMENT_SET_NO":999,"REV_AT_EPOCH":30894,"BSTAR":0.0013334131,"MEAN_MOTION_DOT":0.00037945,"MEAN_MOTION_DDOT":0},{"OBJECT_NAME":"STARLINK-1566","OBJECT_ID":"2020-055BE","EPOCH":"2026-03-05T10:03:32.069088","MEAN_MOTION":15.06394531,"ECCENTRICITY":0.00015831,"INCLINATION":53.0544,"RA_OF_ASC_NODE":115.792,"ARG_OF_PERICENTER":95.6843,"MEAN_ANOMALY":264.4326,"EPHEMERIS_TYPE":0,"CLASSIFICATION_TYPE":"U","NORAD_CAT_ID":46079,"ELEMENT_SET_NO":999,"REV_AT_EPOCH":30866,"BSTAR":1.8702567e-5,"MEAN_MOTION_DOT":-3.0e-8,"MEAN_MOTION_DDOT":0},{"OBJECT_NAME":"STARLINK-1568","OBJECT_ID":"2020-055BF","EPOCH":"2026-03-05T16:00:00.999936","MEAN_MOTION":15.46135903,"ECCENTRICITY":0.00061345,"INCLINATION":53.0618,"RA_OF_ASC_NODE":52.1669,"ARG_OF_PERICENTER":104.1025,"MEAN_ANOMALY":179.3224,"EPHEMERIS_TYPE":0,"CLASSIFICATION_TYPE":"U","NORAD_CAT_ID":46080,"ELEMENT_SET_NO":999,"REV_AT_EPOCH":570,"BSTAR":0.00055133374,"MEAN_MOTION_DOT":0.00027138,"MEAN_MOTION_DDOT":0},{"OBJECT_NAME":"STARLINK-1578","OBJECT_ID":"2020-055BH","EPOCH":"2026-03-05T10:24:46.107936","MEAN_MOTION":15.06401816,"ECCENTRICITY":0.00015037,"INCLINATION":53.0525,"RA_OF_ASC_NODE":115.7225,"ARG_OF_PERICENTER":83.0633,"MEAN_ANOMALY":277.0527,"EPHEMERIS_TYPE":0,"CLASSIFICATION_TYPE":"U","NORAD_CAT_ID":46082,"ELEMENT_SET_NO":999,"REV_AT_EPOCH":30866,"BSTAR":-9.5717387e-5,"MEAN_MOTION_DOT":-1.707e-5,"MEAN_MOTION_DDOT":0},{"OBJECT_NAME":"STARLINK-1579","OBJECT_ID":"2020-055BJ","EPOCH":"2026-03-05T12:52:01.353792","MEAN_MOTION":15.06396697,"ECCENTRICITY":0.0001319,"INCLINATION":53.0541,"RA_OF_ASC_NODE":115.2553,"ARG_OF_PERICENTER":90.9669,"MEAN_ANOMALY":269.1471,"EPHEMERIS_TYPE":0,"CLASSIFICATION_TYPE":"U","NORAD_CAT_ID":46083,"ELEMENT_SET_NO":999,"REV_AT_EPOCH":30867,"BSTAR":-7.901997e-5,"MEAN_MOTION_DOT":-1.458e-5,"MEAN_MOTION_DDOT":0},{"OBJECT_NAME":"STARLINK-1585","OBJECT_ID":"2020-057A","EPOCH":"2026-03-05T16:00:00.999936","MEAN_MOTION":15.81453527,"ECCENTRICITY":0.00031651,"INCLINATION":53.0413,"RA_OF_ASC_NODE":267.2909,"ARG_OF_PERICENTER":141.5211,"MEAN_ANOMALY":268.2933,"EPHEMERIS_TYPE":0,"CLASSIFICATION_TYPE":"U","NORAD_CAT_ID":46117,"ELEMENT_SET_NO":999,"REV_AT_EPOCH":598,"BSTAR":0.00069001168,"MEAN_MOTION_DOT":0.00141542,"MEAN_MOTION_DDOT":0},{"OBJECT_NAME":"STARLINK-1593","OBJECT_ID":"2020-057C","EPOCH":"2026-03-05T16:00:00.999936","MEAN_MOTION":15.73231137,"ECCENTRICITY":0.00041352,"INCLINATION":53.0452,"RA_OF_ASC_NODE":290.3813,"ARG_OF_PERICENTER":128.6803,"MEAN_ANOMALY":208.7961,"EPHEMERIS_TYPE":0,"CLASSIFICATION_TYPE":"U","NORAD_CAT_ID":46119,"ELEMENT_SET_NO":999,"REV_AT_EPOCH":597,"BSTAR":0.00059974716,"MEAN_MOTION_DOT":0.00084559,"MEAN_MOTION_DDOT":0},{"OBJECT_NAME":"STARLINK-1621","OBJECT_ID":"2020-057L","EPOCH":"2026-03-05T16:00:00.999936","MEAN_MOTION":15.75712092,"ECCENTRICITY":0.00055019,"INCLINATION":53.0451,"RA_OF_ASC_NODE":263.7453,"ARG_OF_PERICENTER":208.0214,"MEAN_ANOMALY":56.5031,"EPHEMERIS_TYPE":0,"CLASSIFICATION_TYPE":"U","NORAD_CAT_ID":46127,"ELEMENT_SET_NO":999,"REV_AT_EPOCH":590,"BSTAR":0.00070704448,"MEAN_MOTION_DOT":0.00111565,"MEAN_MOTION_DDOT":0},{"OBJECT_NAME":"STARLINK-1622","OBJECT_ID":"2020-057M","EPOCH":"2026-03-05T16:00:00.999936","MEAN_MOTION":15.62735895,"ECCENTRICITY":0.00064539,"INCLINATION":53.0234,"RA_OF_ASC_NODE":243.9078,"ARG_OF_PERICENTER":161.673,"MEAN_ANOMALY":175.2463,"EPHEMERIS_TYPE":0,"CLASSIFICATION_TYPE":"U","NORAD_CAT_ID":46128,"ELEMENT_SET_NO":999,"REV_AT_EPOCH":582,"BSTAR":0.00146141,"MEAN_MOTION_DOT":0.00135544,"MEAN_MOTION_DDOT":0},{"OBJECT_NAME":"STARLINK-1623","OBJECT_ID":"2020-057N","EPOCH":"2026-03-05T07:43:28.462080","MEAN_MOTION":15.51343312,"ECCENTRICITY":0.00086571,"INCLINATION":53.0517,"RA_OF_ASC_NODE":276.993,"ARG_OF_PERICENTER":146.6292,"MEAN_ANOMALY":213.5264,"EPHEMERIS_TYPE":0,"CLASSIFICATION_TYPE":"U","NORAD_CAT_ID":46129,"ELEMENT_SET_NO":999,"REV_AT_EPOCH":30624,"BSTAR":0.0017862466,"MEAN_MOTION_DOT":0.00107943,"MEAN_MOTION_DDOT":0},{"OBJECT_NAME":"STARLINK-1624","OBJECT_ID":"2020-057P","EPOCH":"2026-03-05T12:16:17.740416","MEAN_MOTION":15.66839727,"ECCENTRICITY":0.00030304,"INCLINATION":53.0436,"RA_OF_ASC_NODE":252.9132,"ARG_OF_PERICENTER":292.4426,"MEAN_ANOMALY":67.6268,"EPHEMERIS_TYPE":0,"CLASSIFICATION_TYPE":"U","NORAD_CAT_ID":46130,"ELEMENT_SET_NO":999,"REV_AT_EPOCH":30784,"BSTAR":0.0012235447,"MEAN_MOTION_DOT":0.00133407,"MEAN_MOTION_DDOT":0}]
